NORAD_CAT_ID,OBJECT_NAME,OBJECT_TYPE,EPOCH,MEAN_MOTION,ECCENTRICITY,INCLINATION,RA_OF_ASC_NODE,ARG_OF_PERICENTER,MEAN_ANOMALY,BSTAR,MEAN_MOTION_DOT,MEAN_MOTION_DDOT,TLE_LINE0,TLE_LINE1,TLE_LINE2,SEMIMAJOR_AXIS,PERIOD,APOGEE,PERIGEE,DECAYED
53993.0,STARLINK-5121,PAYLOAD,2023-11-12 12:50:57,15.08841725,0.0001872,53.2192,56.3877,92.3575,267.7632,9.1226e-05,1.164e-05,0.0,0 STARLINK-5121,1 53993U 22125AF  23316.53538219  .00001164  00000-0  91226-4 0  9998,2 53993  53.2192  56.3877 0001872  92.3575 267.7632 15.08841725 61481,6917.875,95.437,541.035,538.445,0.0
53993.0,STARLINK-5121,PAYLOAD,2023-11-12 14:26:20,15.08842076,0.0001769,53.2181,56.091,76.4398,283.6791,0.00012772,1.745e-05,0.0,0 STARLINK-5121,1 53993U 22125AF  23316.60162264  .00001745  00000-0  12772-3 0  9992,2 53993  53.2181  56.0910 0001769  76.4398 283.6791 15.08842076 61499,6917.874,95.437,540.963,538.515,0.0
53993.0,STARLINK-5121,PAYLOAD,2023-11-13 11:06:20,15.08849987,0.0001726,53.2186,52.2253,82.7739,277.3449,0.00024918,3.681e-05,0.0,0 STARLINK-5121,1 53993U 22125AF  23317.46273800  .00003681  00000-0  24918-3 0  9992,2 53993  53.2186  52.2253 0001726  82.7739 277.3449 15.08849987 61627,6917.85,95.437,540.909,538.521,0.0
53993.0,STARLINK-5121,PAYLOAD,2023-11-13 12:41:43,15.08852307,0.0001687,53.2182,51.9278,82.1987,277.9197,0.00021775,3.18e-05,0.0,0 STARLINK-5121,1 53993U 22125AF  23317.52897654  .00003180  00000-0  21775-3 0  9990,2 53993  53.2182  51.9278 0001687  82.1987 277.9197 15.08852307 61717,6917.843,95.437,540.875,538.541,0.0
53993.0,STARLINK-5121,PAYLOAD,2023-11-14 12:32:31,15.08836033,0.0001613,53.2174,47.4669,93.135,266.9826,-2.3554e-05,-6.63e-06,0.0,0 STARLINK-5121,1 53993U 22125AF  23318.52258301 -.00000663  00000-0 -23554-4 0  9994,2 53993  53.2174  47.4669 0001613  93.1350 266.9826 15.08836033 61868,6917.893,95.438,540.873,538.642,0.0
53993.0,STARLINK-5121,PAYLOAD,2023-11-15 10:47:55,15.08842887,0.000154,53.2186,43.3011,105.527,254.5892,-5.4327e-05,-1.153e-05,0.0,0 STARLINK-5121,1 53993U 22125AF  23319.44994361 -.00001153  00000-0 -54327-4 0  9996,2 53993  53.2186  43.3011 0001540 105.5270 254.5892 15.08842887 61922,6917.872,95.437,540.802,538.671,0.0
53993.0,STARLINK-5121,PAYLOAD,2023-11-16 09:03:18,15.0884073,0.0001584,53.2189,39.1383,106.1297,253.987,0.00012456,1.695e-05,0.0,0 STARLINK-5121,1 53993U 22125AF  23320.37730032  .00001695  00000-0  12456-3 0  9998,2 53993  53.2189  39.1383 0001584 106.1297 253.9870 15.08840730 62064,6917.878,95.438,540.839,538.647,0.0
53993.0,STARLINK-5121,PAYLOAD,2023-11-16 15:24:50,15.0884672,0.0001629,53.2185,37.948,107.7809,252.3361,0.00016519,2.342e-05,0.0,0 STARLINK-5121,1 53993U 22125AF  23320.64225516  .00002342  00000-0  16519-3 0  9998,2 53993  53.2185  37.9480 0001629 107.7809 252.3361 15.08846720 62186,6917.86,95.437,540.852,538.598,0.0
53993.0,STARLINK-5121,PAYLOAD,2023-11-16 21:46:24,15.08824839,0.0001529,53.2183,36.7556,94.6544,265.4623,0.00040912,6.226e-05,0.0,0 STARLINK-5121,1 53993U 22125AF  23320.90722659  .00006226  00000-0  40912-3 0  9996,2 53993  53.2183  36.7556 0001529  94.6544 265.4623 15.08824839 62143,6917.927,95.439,540.849,538.734,0.0
53993.0,STARLINK-5121,PAYLOAD,2023-11-17 12:04:52,15.08836205,0.0001544,53.2198,34.0863,108.1917,251.9244,8.3563e-05,1.042e-05,0.0,0 STARLINK-5121,1 53993U 22125AF  23321.50338712  .00001042  00000-0  83563-4 0  9997,2 53993  53.2198  34.0863 0001544 108.1917 251.9244 15.08836205 62232,6917.892,95.438,540.825,538.689,0.0
53993.0,STARLINK-5121,PAYLOAD,2023-11-17 21:37:11,15.08837764,0.0001369,53.2183,32.3013,92.3489,267.766,4.1888e-05,3.79e-06,0.0,0 STARLINK-5121,1 53993U 22125AF  23321.90082835  .00000379  00000-0  41888-4 0  9999,2 53993  53.2183  32.3013 0001369  92.3489 267.7660 15.08837764 62291,6917.887,95.438,540.699,538.805,0.0
53993.0,STARLINK-5121,PAYLOAD,2023-11-18 03:58:44,15.0884235,0.0001341,53.218,31.1117,95.7377,264.3769,-5.2912e-05,-1.13e-05,0.0,0 STARLINK-5121,1 53993U 22125AF  23322.16578895 -.00001130  00000-0 -52912-4 0  9992,2 53993  53.2180  31.1117 0001341  95.7377 264.3769 15.08842350 62417,6917.873,95.437,540.666,538.811,0.0
53993.0,STARLINK-5121,PAYLOAD,2023-11-18 11:55:39,15.08854282,0.0001458,53.2186,29.6255,109.7057,250.4093,-0.00016263,-2.876e-05,0.0,0 STARLINK-5121,1 53993U 22125AF  23322.49698331 -.00002876  00000-0 -16263-3 0  9992,2 53993  53.2186  29.6255 0001458 109.7057 250.4093 15.08854282 62466,6917.837,95.437,540.71,538.693,0.0
53993.0,STARLINK-5121,PAYLOAD,2023-11-18 21:27:58,15.08833712,0.0001326,53.2184,27.8412,93.6256,266.4888,0.00010454,1.376e-05,0.0,0 STARLINK-5121,1 53993U 22125AF  23322.89442943  .00001376  00000-0  10454-3 0  9990,2 53993  53.2184  27.8412 0001326  93.6256 266.4888 15.08833712 62447,6917.9,95.438,540.682,538.847,0.0
53993.0,STARLINK-5121,PAYLOAD,2023-11-19 13:21:49,15.08843297,0.0001402,53.2186,24.8678,97.5532,262.562,0.00014649,2.044e-05,0.0,0 STARLINK-5121,1 53993U 22125AF  23323.55682556  .00002044  00000-0  14649-3 0  9993,2 53993  53.2186  24.8678 0001402  97.5532 262.5620 15.08843297 62546,6917.87,95.437,540.705,538.765,0.0
53993.0,STARLINK-5121,PAYLOAD,2023-11-19 21:18:45,15.08843213,0.0001413,53.219,23.3813,93.6269,266.4885,8.4428e-05,1.056e-05,0.0,0 STARLINK-5121,1 53993U 22125AF  23323.88802639  .00001056  00000-0  84428-4 0  9990,2 53993  53.2190  23.3813 0001413  93.6269 266.4885 15.08843213 62591,6917.871,95.437,540.713,538.758,0.0
53993.0,STARLINK-5121,PAYLOAD,2023-11-20 10:01:50,15.08841555,0.0001424,53.2187,21.0026,90.9689,269.1467,0.0001107,1.474e-05,0.0,0 STARLINK-5121,1 53993U 22125AF  23324.41794807  .00001474  00000-0  11070-3 0  9993,2 53993  53.2187  21.0026 0001424  90.9689 269.1467 15.08841555 62757,6917.876,95.437,540.726,538.756,0.0
53993.0,STARLINK-5121,PAYLOAD,2023-11-20 11:37:12,15.08866864,0.0001681,53.2184,20.7043,100.3188,259.7993,-0.00022719,-3.905e-05,0.0,0 STARLINK-5121,1 53993U 22125AF  23324.48417686 -.00003905  00000-0 -22719-3 0  9992,2 53993  53.2184  20.7043 0001681 100.3188 259.7993 15.08866864 62685,6917.798,95.436,540.826,538.5,0.0
53993.0,STARLINK-5121,PAYLOAD,2023-11-20 21:09:32,15.08843407,0.0001416,53.2185,18.9209,90.1998,269.9157,0.00010199,1.336e-05,0.0,0 STARLINK-5121,1 53993U 22125AF  23324.88162606  .00001336  00000-0  10199-3 0  9998,2 53993  53.2185  18.9209 0001416  90.1998 269.9157 15.08843407 62740,6917.87,95.437,540.715,538.755,0.0
53993.0,STARLINK-5121,PAYLOAD,2023-11-21 03:31:05,15.08843303,0.0001481,53.2174,17.7328,89.6613,270.4548,8.9325e-05,1.134e-05,0.0,0 STARLINK-5121,1 53993U 22125AF  23325.14658622  .00001134  00000-0  89325-4 0  9990,2 53993  53.2174  17.7328 0001481  89.6613 270.4548 15.08843303 62865,6917.87,95.437,540.76,538.711,0.0
53993.0,STARLINK-5121,PAYLOAD,2023-11-21 11:28:00,15.08850509,0.0001503,53.2183,16.2436,91.5709,268.5455,9.3868e-05,1.207e-05,0.0,0 STARLINK-5121,1 53993U 22125AF  23325.47778145  .00001207  00000-0  93868-4 0  9997,2 53993  53.2183  16.2436 0001503  91.5709 268.5455 15.08850509 62830,6917.848,95.437,540.753,538.674,0.0
53993.0,STARLINK-5121,PAYLOAD,2023-11-22 09:43:24,15.08850348,0.0001476,53.2195,12.079,95.3828,264.7333,4.5361e-05,4.34e-06,0.0,0 STARLINK-5121,1 53993U 22125AF  23326.40514059  .00000434  00000-0  45361-4 0  9999,2 53993  53.2195  12.0790 0001476  95.3828 264.7333 15.08850348 63052,6917.849,95.437,540.735,538.693,0.0
53993.0,STARLINK-5121,PAYLOAD,2023-11-22 12:54:09,15.08855481,0.0001506,53.2197,11.4818,103.0229,257.0931,9.7715e-05,1.268e-05,0.0,0 STARLINK-5121,1 53993U 22125AF  23326.53761510  .00001268  00000-0  97715-4 0  9995,2 53993  53.2197  11.4818 0001506 103.0229 257.0931 15.08855481 62998,6917.833,95.437,540.74,538.656,0.0
53993.0,STARLINK-5121,PAYLOAD,2023-11-23 00:01:52,15.08837669,0.000134,53.2171,9.4036,91.8466,268.2679,1.8998e-05,1.4e-07,0.0,0 STARLINK-5121,1 53993U 22125AF  23327.00130711  .00000014  00000-0  18998-4 0  9995,2 53993  53.2171   9.4036 0001340  91.8466 268.2679 15.08837669 63141,6917.888,95.438,540.68,538.826,0.0
53993.0,STARLINK-5121,PAYLOAD,2023-11-23 09:34:11,15.0884079,0.0001554,53.2176,7.6192,110.995,249.1209,3.4341e-05,2.59e-06,0.0,0 STARLINK-5121,1 53993U 22125AF  23327.39874469  .00000259  00000-0  34341-4 0  9993,2 53993  53.2176   7.6192 0001554 110.9950 249.1209 15.08840790 63121,6917.878,95.438,540.818,538.668,0.0
53993.0,STARLINK-5121,PAYLOAD,2023-11-24 03:03:26,15.08826826,0.0001402,53.217,4.3488,106.2793,253.8353,-0.00024308,-4.153e-05,0.0,0 STARLINK-5121,1 53993U 22125AF  23328.12739548 -.00004153  00000-0 -24308-3 0  9993,2 53993  53.2170   4.3488 0001402 106.2793 253.8353 15.08826826 63319,6917.921,95.438,540.756,538.816,0.0
53993.0,STARLINK-5121,PAYLOAD,2023-11-24 11:00:22,15.08836965,0.0001342,53.2177,2.8617,97.5206,262.5939,-9.7454e-05,-1.838e-05,0.0,0 STARLINK-5121,1 53993U 22125AF  23328.45859623 -.00001838  00000-0 -97454-4 0  9996,2 53993  53.2177   2.8617 0001342  97.5206 262.5939 15.08836965 63285,6917.89,95.438,540.683,538.826,0.0
53993.0,STARLINK-5121,PAYLOAD,2023-11-25 07:40:22,15.08846442,0.0001409,53.218,358.9974,91.0405,269.0749,0.00020686,3.006e-05,0.0,0 STARLINK-5121,1 53993U 22125AF  23329.31970842  .00003006  00000-0  20686-3 0  9998,2 53993  53.2180 358.9974 0001409  91.0405 269.0749 15.08846442 63411,6917.861,95.437,540.7,538.751,0.0
53993.0,STARLINK-5121,PAYLOAD,2023-11-26 02:45:00,15.0884594,0.0001567,53.2175,355.433,83.8158,276.3013,0.00029448,4.403e-05,0.0,0 STARLINK-5121,1 53993U 22125AF  23330.11459197  .00004403  00000-0  29448-3 0  9990,2 53993  53.2175 355.4330 0001567  83.8158 276.3013 15.08845940 63611,6917.862,95.437,540.811,538.643,0.0
53993.0,STARLINK-5121,PAYLOAD,2023-11-26 07:31:09,15.08851479,0.0001712,53.2174,354.5391,103.1651,256.9532,0.00033541,5.056e-05,0.0,0 STARLINK-5121,1 53993U 22125AF  23330.31330648  .00005056  00000-0  33541-3 0  9995,2 53993  53.2174 354.5391 0001712 103.1651 256.9532 15.08851479 63561,6917.845,95.437,540.895,538.526,0.0
